OBJECT_NAME,OBJECT_ID,EPOCH,MEAN_MOTION,ECCENTRICITY,INCLINATION,RA_OF_ASC_NODE,ARG_OF_PERICENTER,MEAN_ANOMALY,EPHEMERIS_TYPE,CLASSIFICATION_TYPE,NORAD_CAT_ID,ELEMENT_SET_NO,REV_AT_EPOCH,BSTAR,MEAN_MOTION_DOT,MEAN_MOTION_DDOT
CONNECTA IOT-1,2024-149E,2026-05-17T16:24:58.313664,15.23284093,.0002968,97.3764,214.4956,57.9174,302.2351,0,U,60472,999,9715,.1215E-3,.2811E-4,0
LOPEN,2024-149F,2026-05-17T20:02:58.438176,15.38750823,.0001808,97.3781,220.9880,60.7762,299.3664,0,U,60473,999,9759,.28247E-3,.10739E-3,0
ROCK,2024-149G,2026-05-17T11:55:23.891520,15.38746484,.00018607,97.3778,220.6644,50.9849,309.1562,0,U,60474,999,9754,.26046976E-3,.9894E-4,0
CONNECTA IOT-3,2024-149H,2026-05-17T20:05:16.470816,15.23296130,.0003605,97.3738,214.4079,40.9249,319.2258,0,U,60475,999,9718,.12828E-3,.2973E-4,0
QUBE,2024-149J,2026-05-17T12:03:19.338624,15.45703500,.00012802,97.3780,223.3804,30.4029,329.7294,0,U,60476,999,9772,.32134308E-3,.15437E-3,0
WREN-1,2024-149L,2026-05-17T05:21:25.784640,15.40278958,.00042021,97.3770,221.0416,34.1243,326.0272,0,U,60478,999,9755,.35814586E-3,.14349E-3,0
TOMORROW-S1,2024-149M,2026-05-17T20:08:25.223712,15.32260463,.0002725,97.3753,218.4177,33.2679,326.8733,0,U,60479,999,9744,.1751E-3,.5375E-4,0
FLOCK 4BE-18,2024-149N,2026-05-17T12:03:56.746368,15.40813092,.0003382,97.3733,220.9364,31.9486,328.1965,0,U,60480,999,9758,.28727869E-3,.11693E-3,0
FLOCK 4BE-7,2024-149P,2026-05-17T11:26:26.308896,15.38982035,.00028091,97.3762,220.3159,43.2155,316.9310,0,U,60481,999,9752,.38999648E-3,.1498E-3,0
TOMORROW-S2,2024-149T,2026-05-17T16:10:53.795136,15.32272027,.0003541,97.3820,218.7134,49.8089,310.3462,0,U,60485,999,9741,.16846E-3,.5171E-4,0
FLOCK 4BE-36,2024-149U,2026-05-17T05:34:16.342176,15.41696726,.00037965,97.3747,221.3144,44.2871,315.8679,0,U,60486,999,9758,.27632465E-3,.1158E-3,0
FLOCK 4BE-25,2024-149V,2026-05-17T04:35:38.436576,15.37975908,.00024371,97.3803,220.1519,53.7627,306.3843,0,U,60487,999,9747,.27151777E-3,.10062E-3,0
FLOCK 4BE-31,2024-149W,2026-05-17T16:15:14.687712,15.42849865,.0002874,97.3804,222.5407,54.9561,305.1956,0,U,60488,999,9767,.30226E-3,.13174E-3,0
FLOCK 4BE-20,2024-149X,2026-05-17T15:50:18.041856,15.37204455,.0003776,97.3704,219.5801,41.8900,318.2633,0,U,60489,999,9752,.24327E-3,.8783E-4,0
FLOCK 4BE-23,2024-149Y,2026-05-17T18:33:15.955776,15.36847501,.000379,97.3784,220.0528,49.3958,310.7615,0,U,60490,999,9752,.25947E-3,.9266E-4,0
FLOCK 4BE-15,2024-149Z,2026-05-17T16:18:13.592736,15.52981087,.0003241,97.3701,222.0686,135.0353,225.1162,0,U,60491,999,9768,.11578E-2,.72608E-3,0
FLOCK 4BE-17,2024-149AA,2026-05-17T16:01:20.210592,15.38829335,.0002986,97.3778,220.8183,42.1828,317.9647,0,U,60492,999,9756,.26624E-3,.10143E-3,0
NUSAT-50 (NANCY ROMAN),2024-149AB,2026-05-17T13:14:29.069376,15.29282745,.000202,97.3791,219.0342,327.0300,33.0814,0,U,60493,999,9744,.22104E-3,.6204E-4,0
FLOCK 4BE-22,2024-149AC,2026-05-17T11:32:56.453280,15.40180979,.00037761,97.3736,220.7751,45.8588,314.2968,0,U,60494,999,9757,.26887656E-3,.10712E-3,0
FLOCK 4BE-34,2024-149AD,2026-05-17T16:38:42.749376,15.40218722,.0004125,97.3783,221.7916,55.4082,304.7552,0,U,60495,999,9763,.22759E-3,.9064E-4,0
TYCHE,2024-149AE,2026-05-17T20:07:27.053184,15.25805717,.0003261,97.3757,216.0618,54.1955,305.9586,0,U,60496,999,9727,.12893E-3,.3223E-4,0
FLOCK 4BE-32,2024-149AF,2026-05-17T16:19:30.746208,15.41042015,.0003928,97.3725,221.3040,51.0353,309.1243,0,U,60497,999,9763,.28363E-3,.11632E-3,0
NUSAT-48 (HENRIETTA LEAVITT),2024-149AG,2026-05-17T11:36:11.350080,15.29897968,.00045461,97.3909,219.1392,44.4802,315.6803,0,U,60498,999,9744,.23421026E-3,.6706E-4,0
FLOCK 4BE-30,2024-149AH,2026-05-17T10:49:49.932768,15.49301029,.00020378,97.3791,222.1166,163.8063,196.3254,0,U,60499,999,9700,.12428771E-2,.68365E-3,0
NUSAT-49 (KLARA DAN VON NEUMANN),2024-149AJ,2026-05-17T12:39:51.774912,15.29947111,.0003797,97.3778,219.0232,80.0656,280.1013,0,U,60500,999,9744,.21767E-3,.6236E-4,0
FLOCK 4BE-11,2024-149AK,2026-05-17T16:35:37.004064,15.41902606,.0003998,97.3702,221.5155,48.6772,311.4819,0,U,60501,999,9765,.25972E-3,.10953E-3,0
YAM-7,2024-149AN,2026-05-17T16:14:54.592800,15.31361438,.0004566,97.3787,218.0605,61.2922,298.8778,0,U,60504,999,9738,.17378E-3,.5187E-4,0
FLOCK 4BE-24,2024-149AP,2026-05-17T11:36:27.992448,15.41850223,.00041956,97.3721,221.5535,57.6505,302.5148,0,U,60505,999,9763,.30315047E-3,.1278E-3,0
LUR-1,2024-149AQ,2026-05-17T04:12:46.496160,15.29667234,.00054386,97.3744,216.2381,67.7637,292.4180,0,U,60506,999,9723,.1762223E-3,.4991E-4,0
