{"n":60472,"c":9,"l1":"1 60472U 2024-149 26137.68400825  0.00002811  00000-0  121500-4 0  9999","l2":"2 60472  97.3764 214.4956 0002968  57.9174 302.2351 15.23284093 97151","nm":"CONNECTA IOT-1"},{"n":60473,"c":9,"l1":"1 60473U 2024-149 26137.83539859  0.00010739  00000-0  282470-4 0  9999","l2":"2 60473  97.3781 220.9880 0001808  60.7762 299.3664 15.38750823 97592","nm":"LOPEN"},{"n":60474,"c":9,"l1":"1 60474U 2024-149 26137.49680429  0.00009894  00000-0  260470-4 0  9998","l2":"2 60474  97.3778 220.6644 0001861  50.9849 309.1562 15.38746484 97540","nm":"ROCK"},{"n":60475,"c":9,"l1":"1 60475U 2024-149 26137.83699618  0.00002973  00000-0  128280-4 0  9990","l2":"2 60475  97.3738 214.4079 0003605  40.9249 319.2258 15.23296130 97187","nm":"CONNECTA IOT-3"},{"n":60476,"c":9,"l1":"1 60476U 2024-149 26137.50230715  0.00015437  00000-0  321343-4 0  9998","l2":"2 60476  97.3780 223.3804 0001280  30.4029 329.7294 15.45703500 97721","nm":"QUBE"},{"n":60478,"c":9,"l1":"1 60478U 2024-149 26137.22321509  0.00014349  00000-0  358146-4 0  9993","l2":"2 60478  97.3770 221.0416 0004202  34.1243 326.0272 15.40278958 97558","nm":"WREN-1"},{"n":60479,"c":9,"l1":"1 60479U 2024-149 26137.83918082  0.00005375  00000-0  175100-4 0  9995","l2":"2 60479  97.3753 218.4177 0002725  33.2679 326.8733 15.32260463 97446","nm":"TOMORROW-S1"},{"n":60480,"c":4,"l1":"1 60480U 2024-149 26137.50274012  0.00011693  00000-0  287279-4 0  9990","l2":"2 60480  97.3733 220.9364 0003382  31.9486 328.1965 15.40813092 97581","nm":"FLOCK 4BE-18"},{"n":60481,"c":4,"l1":"1 60481U 2024-149 26137.47669338  0.00014980  00000-0  389996-4 0  9997","l2":"2 60481  97.3762 220.3159 0002809  43.2155 316.9310 15.38982035 97526","nm":"FLOCK 4BE-7"},{"n":60485,"c":9,"l1":"1 60485U 2024-149 26137.67423374  0.00005171  00000-0  168460-4 0  9994","l2":"2 60485  97.3820 218.7134 0003541  49.8089 310.3462 15.32272027 97412","nm":"TOMORROW-S2"},{"n":60486,"c":4,"l1":"1 60486U 2024-149 26137.23213359  0.00011580  00000-0  276325-4 0  9998","l2":"2 60486  97.3747 221.3144 0003796  44.2871 315.8679 15.41696726 97586","nm":"FLOCK 4BE-36"},{"n":60487,"c":4,"l1":"1 60487U 2024-149 26137.19141708  0.00010062  00000-0  271518-4 0  9995","l2":"2 60487  97.3803 220.1519 0002437  53.7627 306.3843 15.37975908 97471","nm":"FLOCK 4BE-25"},{"n":60488,"c":4,"l1":"1 60488U 2024-149 26137.67725332  0.00013174  00000-0  302260-4 0  9996","l2":"2 60488  97.3804 222.5407 0002874  54.9561 305.1956 15.42849865 97672","nm":"FLOCK 4BE-31"},{"n":60489,"c":4,"l1":"1 60489U 2024-149 26137.65993103  0.00008783  00000-0  243270-4 0  9993","l2":"2 60489  97.3704 219.5801 0003776  41.8900 318.2633 15.37204455 97525","nm":"FLOCK 4BE-20"},{"n":60490,"c":4,"l1":"1 60490U 2024-149 26137.77310133  0.00009266  00000-0  259470-4 0  9990","l2":"2 60490  97.3784 220.0528 0003790  49.3958 310.7615 15.36847501 97521","nm":"FLOCK 4BE-23"},{"n":60491,"c":4,"l1":"1 60491U 2024-149 26137.67932398  0.00072608  00000-0  115780-3 0  9997","l2":"2 60491  97.3701 222.0686 0003241 135.0353 225.1162 15.52981087 97680","nm":"FLOCK 4BE-15"},{"n":60492,"c":4,"l1":"1 60492U 2024-149 26137.66759502  0.00010143  00000-0  266240-4 0  9996","l2":"2 60492  97.3778 220.8183 0002986  42.1828 317.9647 15.38829335 97569","nm":"FLOCK 4BE-17"},{"n":60493,"c":9,"l1":"1 60493U 2024-149 26137.55172534  0.00006204  00000-0  221040-4 0  9991","l2":"2 60493  97.3791 219.0342 0002020 327.0300  33.0814 15.29282745 97448","nm":"NUSAT-50 (NANCY ROMAN)"},{"n":60494,"c":4,"l1":"1 60494U 2024-149 26137.48120895  0.00010712  00000-0  268877-4 0  9995","l2":"2 60494  97.3736 220.7751 0003776  45.8588 314.2968 15.40180979 97570","nm":"FLOCK 4BE-22"},{"n":60495,"c":4,"l1":"1 60495U 2024-149 26137.69355034  0.00009064  00000-0  227590-4 0  9999","l2":"2 60495  97.3783 221.7916 0004125  55.4082 304.7552 15.40218722 97630","nm":"FLOCK 4BE-34"},{"n":60496,"c":9,"l1":"1 60496U 2024-149 26137.83850756  0.00003223  00000-0  128930-4 0  9996","l2":"2 60496  97.3757 216.0618 0003261  54.1955 305.9586 15.25805717 97272","nm":"TYCHE"},{"n":60497,"c":4,"l1":"1 60497U 2024-149 26137.68021697  0.00011632  00000-0  283630-4 0  9996","l2":"2 60497  97.3725 221.3040 0003928  51.0353 309.1243 15.41042015 97632","nm":"FLOCK 4BE-32"},{"n":60498,"c":9,"l1":"1 60498U 2024-149 26137.48346470  0.00006706  00000-0  234210-4 0  9990","l2":"2 60498  97.3909 219.1392 0004546  44.4802 315.6803 15.29897968 97448","nm":"NUSAT-48 (HENRIETTA LEAVITT)"},{"n":60499,"c":4,"l1":"1 60499U 2024-149 26137.45127236  0.00068365  00000-0  124288-3 0  9996","l2":"2 60499  97.3791 222.1166 0002038 163.8063 196.3254 15.49301029 97006","nm":"FLOCK 4BE-30"},{"n":60500,"c":9,"l1":"1 60500U 2024-149 26137.52768257  0.00006236  00000-0  217670-4 0  9999","l2":"2 60500  97.3778 219.0232 0003797  80.0656 280.1013 15.29947111 97443","nm":"NUSAT-49 (KLARA DAN VON NEUMANN)"},{"n":60501,"c":4,"l1":"1 60501U 2024-149 26137.69140051  0.00010953  00000-0  259720-4 0  9997","l2":"2 60501  97.3702 221.5155 0003998  48.6772 311.4819 15.41902606 97654","nm":"FLOCK 4BE-11"},{"n":60504,"c":9,"l1":"1 60504U 2024-149 26137.67702074  0.00005187  00000-0  173780-4 0  9991","l2":"2 60504  97.3787 218.0605 0004566  61.2922 298.8778 15.31361438 97384","nm":"YAM-7"},{"n":60505,"c":4,"l1":"1 60505U 2024-149 26137.48365731  0.00012780  00000-0  303150-4 0  9999","l2":"2 60505  97.3721 221.5535 0004196  57.6505 302.5148 15.41850223 97637","nm":"FLOCK 4BE-24"},{"n":60506,"c":9,"l1":"1 60506U 2024-149 26137.17553815  0.00004991  00000-0  176222-4 0  9991","l2":"2 60506  97.3744 216.2381 0005439  67.7637 292.4180 15.29667234 97235","nm":"LUR-1"}